COSMOS 2425 (716)       
1 29670U 06062A   21053.07700535  .00000096  00000-0  00000-0 0  9991
2 29670  64.8760 259.3471 0024693 349.7471 203.1700  2.13113778110218
COSMOS 2433 (720)       
1 32275U 07052A   21054.29735537 -.00000040  00000-0  00000-0 0  9991
2 32275  66.0442  20.5765 0004963 269.6557 318.2394  2.13104148103750
COSMOS 2432 (719)       
1 32276U 07052B   21054.35977942 -.00000040  00000-0  00000-0 0  9997
2 32276  66.0559  20.6669 0012257 321.9726 263.3589  2.13103508103754
COSMOS 2434 (721)       
1 32393U 07065A   21054.30688906  .00000099  00000-0  00000-0 0  9998
2 32393  64.4869 257.8192 0004857  76.8689  46.4119  2.13103080102467
COSMOS 2436 (723)       
1 32395U 07065C   21054.19880404  .00000099  00000-0  00000-0 0  9994
2 32395  64.5015 257.8739 0016179   6.9805 169.5206  2.13102910102391
COSMOS 2456 (730)       
1 36111U 09070A   21054.40459043 -.00000001  00000-0  00000-0 0  9991
2 36111  64.2583 137.4930 0003709 313.8325  56.4550  2.13099071 87139
COSMOS 2457 (733)       
1 36112U 09070B   21054.23222135 -.00000003  00000-0  00000-0 0  9995
2 36112  64.2410 137.3863 0005427 167.6399 193.8858  2.13101354 87133
COSMOS 2459 (731)       
1 36400U 10007A   21054.29939485 -.00000042  00000-0  00000-0 0  9999
2 36400  65.9421  19.5155 0026715 345.1438 100.5395  2.13105014 85471
COSMOS 2461 (735)       
1 36401U 10007B   21054.02128120 -.00000042  00000-0  00000-0 0  9997
2 36401  65.9382  19.4880 0020896   0.4164 233.7445  2.13103759 85472
COSMOS 2460 (732)       
1 36402U 10007C   21054.49398094 -.00000042  00000-0  00000-0 0  9998
2 36402  65.9236  19.4332 0002499 298.3948 242.0797  2.13106534 85488
COSMOS 2464 (736)       
1 37139U 10041C   21054.12072918  .00000099  00000-0  00000-0 0  9999
2 37139  64.0910 257.1387 0029114  13.7495 188.4800  2.13100719 81534
COSMOS 2471 (701K)      
1 37372U 11009A   21054.27865866 -.00000042  00000-0  00000-0 0  9990
2 37372  65.9219  19.3794 0009865 238.2530 300.6709  2.13107409 77758
COSMOS 2476 (744)       
1 37867U 11064A   21054.51609950 -.00000001  00000-0  00000-0 0  9992
2 37867  64.5540 138.6571 0020418 236.8514 120.3514  2.13101827 72473
COSMOS 2477 (745)       
1 37868U 11064B   21054.28702792 -.00000003  00000-0  00000-0 0  9997
2 37868  64.5640 138.7245 0017920 237.5827 122.2647  2.13101646 72436
COSMOS 2475 (743)       
1 37869U 11064C   21054.36314479 -.00000002  00000-0  00000-0 0  9997
2 37869  64.5698 138.7258 0021754 257.9367 117.9030  2.13101752 72445
COSMOS 2485 (747)       
1 39155U 13019A   21054.39670031 -.00000002  00000-0  00000-0 0  9991
2 39155  64.7208 138.9858 0020899 232.0903  78.0165  2.13101790 60941
COSMOS 2492 (754)       
1 39620U 14012A   21054.29795639 -.00000042  00000-0  00000-0 0  9997
2 39620  65.8139  19.1876 0015491 320.0362 309.2287  2.13103207 53897
COSMOS 2500 (755)       
1 40001U 14032A   21054.34983461 -.00000043  00000-0  00000-0 0  9993
2 40001  65.7541  19.0823 0006760 226.3211 302.6441  2.13102495 52110
COSMOS 2501 (702K)      
1 40315U 14075A   21054.46917854  .00000097  00000-0  00000-0 0  9992
2 40315  63.8071 257.9745 0015477 206.9027 219.5568  2.13101791 48529
COSMOS 2514 (751)       
1 41330U 16008A   21054.41675586 -.00000043  00000-0  00000-0 0  9998
2 41330  65.5561  18.8912 0010611 228.0272 175.2043  2.13102864 39283
COSMOS 2516 (753)       
1 41554U 16032A   21054.49893425  .00000098  00000-0  00000-0 0  9994
2 41554  64.0285 258.1160 0011140 214.5411 144.5260  2.13106757 36883
COSMOS 2522 (752)       
1 42939U 17055A   21054.40132878  .00000098  00000-0  00000-0 0  9997
2 42939  64.2647 258.3748 0005146 251.3251 258.0464  2.13101977 26648
COSMOS 2527 (756)       
1 43508U 18053A   21054.20313814 -.00000003  00000-0  00000-0 0  9995
2 43508  64.8852 138.8933 0007729 228.5525 160.7824  2.13102573 20930
COSMOS 2529 (757)       
1 43687U 18086A   21054.52697218  .00000099  00000-0  00000-0 0  9991
2 43687  64.4769 258.5559 0007892 280.5555 280.7577  2.13102022 17952
COSMOS 2534 (758)       
1 44299U 19030A   21054.39513666  .00000099  00000-0  00000-0 0  9990
2 44299  64.5441 258.4029 0011497 300.2196 294.8429  2.13101941 13595
COSMOS 2544 (759)       
1 44850U 19088A   21054.57173662  .00000000  00000-0  00000-0 0  9996
2 44850  64.8700 138.7427 0011728 262.2800  93.6887  2.13102354  9370
COSMOS 2545 (760)       
1 45358U 20018A   21054.52819507 -.00000043  00000-0  00000-0 0  9993
2 45358  64.8873  19.8896 0010832 260.1076 272.6199  2.13102726  7322
